NORAD_CAT_ID,OBJECT_NAME,OBJECT_TYPE,EPOCH,MEAN_MOTION,ECCENTRICITY,INCLINATION,RA_OF_ASC_NODE,ARG_OF_PERICENTER,MEAN_ANOMALY,BSTAR,MEAN_MOTION_DOT,MEAN_MOTION_DDOT,TLE_LINE0,TLE_LINE1,TLE_LINE2,SEMIMAJOR_AXIS,PERIOD,APOGEE,PERIGEE,DECAYED
52492.0,STARLINK-3916,PAYLOAD,2023-03-20 03:29:49,15.08846882,0.0001139,53.2139,242.3098,78.1184,281.9936,0.00016784,2.385e-05,0.0,0 STARLINK-3916,1 52492U 22049AT  23079.14571121  .00002385  00000-0  16784-3 0  9999,2 52492  53.2139 242.3098 0001139  78.1184 281.9936 15.08846882 48514,6917.859,95.437,540.512,538.936,0.0
52492.0,STARLINK-3916,PAYLOAD,2023-03-20 14:37:31,15.08842696,0.0001126,53.2151,240.229,82.4226,277.6894,3.0706e-05,2.01e-06,0.0,0 STARLINK-3916,1 52492U 22049AT  23079.60939169  .00000201  00000-0  30706-4 0  9996,2 52492  53.2151 240.2290 0001126  82.4226 277.6894 15.08842696 48749,6917.872,95.437,540.516,538.958,0.0
52492.0,STARLINK-3916,PAYLOAD,2023-03-20 17:48:17,15.08845696,0.0001137,53.2157,239.635,85.0388,275.0734,8.311e-05,1.035e-05,0.0,0 STARLINK-3916,1 52492U 22049AT  23079.74187050  .00001035  00000-0  83110-4 0  9998,2 52492  53.2157 239.6350 0001137  85.0388 275.0734 15.08845696 48607,6917.863,95.437,540.515,538.941,0.0
52492.0,STARLINK-3916,PAYLOAD,2023-03-21 09:42:08,15.08842326,0.0001543,53.2164,236.661,92.8202,267.2966,7.6648e-05,9.32e-06,0.0,0 STARLINK-3916,1 52492U 22049AT  23080.40426999  .00000932  00000-0  76648-4 0  9994,2 52492  53.2164 236.6610 0001543  92.8202 267.2966 15.08842326 48701,6917.873,95.437,540.806,538.671,0.0
52492.0,STARLINK-3916,PAYLOAD,2023-03-22 03:11:23,15.08826699,9.49e-05,53.2159,233.3905,101.5746,258.5353,-0.00027419,-4.647e-05,0.0,0 STARLINK-3916,1 52492U 22049AT  23081.13291230 -.00004647  00000-0 -27419-3 0  9993,2 52492  53.2159 233.3905 0000949 101.5746 258.5353 15.08826699 48973,6917.921,95.438,540.443,539.13,0.0
52492.0,STARLINK-3916,PAYLOAD,2023-03-22 17:29:51,15.08848722,0.0001318,53.2165,230.7118,88.6768,271.4375,0.0001831,2.628e-05,0.0,0 STARLINK-3916,1 52492U 22049AT  23081.72906846  .00002628  00000-0  18310-3 0  9999,2 52492  53.2165 230.7118 0001318  88.6768 271.4375 15.08848722 49067,6917.854,95.437,540.631,538.807,0.0
52492.0,STARLINK-3916,PAYLOAD,2023-03-23 03:02:10,15.088411,0.0001437,53.217,228.9285,78.6409,281.4744,9.7287e-05,1.261e-05,0.0,0 STARLINK-3916,1 52492U 22049AT  23082.12651250  .00001261  00000-0  97287-4 0  9993,2 52492  53.2170 228.9285 0001437  78.6409 281.4744 15.08841100 49121,6917.877,95.437,540.736,538.748,0.0
52492.0,STARLINK-3916,PAYLOAD,2023-03-23 14:09:52,15.0883955,0.0001753,53.2156,226.8475,79.8283,280.2907,0.00013567,1.872e-05,0.0,0 STARLINK-3916,1 52492U 22049AT  23082.59019563  .00001872  00000-0  13567-3 0  9995,2 52492  53.2156 226.8475 0001753  79.8283 280.2907 15.08839550 49031,6917.882,95.438,540.959,538.534,0.0
52492.0,STARLINK-3916,PAYLOAD,2023-03-23 17:20:38,15.0885428,0.0001323,53.2168,226.2533,72.3147,287.799,0.00038581,5.86e-05,0.0,0 STARLINK-3916,1 52492U 22049AT  23082.72266848  .00005860  00000-0  38581-3 0  9994,2 52492  53.2168 226.2533 0001323  72.3147 287.7990 15.08854280 49214,6917.837,95.437,540.617,538.787,0.0
52492.0,STARLINK-3916,PAYLOAD,2023-03-24 14:00:37,15.08884932,0.0001441,53.2174,222.3877,95.2511,264.8646,0.00091338,0.00014296,0.0,0 STARLINK-3916,1 52492U 22049AT  23083.58377051  .00014296  00000-0  91338-3 0  9990,2 52492  53.2174 222.3877 0001441  95.2511 264.8646 15.08884932 49186,6917.743,95.435,540.605,538.611,0.0
52492.0,STARLINK-3916,PAYLOAD,2023-03-24 15:36:00,15.08884572,0.0001542,53.2165,222.0919,65.0332,295.082,0.00083177,0.0001299,0.0,0 STARLINK-3916,1 52492U 22049AT  23083.65001075  .00012990  00000-0  83177-3 0  9999,2 52492  53.2165 222.0919 0001542  65.0332 295.0820 15.08884572 49357,6917.744,95.435,540.676,538.542,0.0
52492.0,STARLINK-3916,PAYLOAD,2023-03-25 02:43:42,15.08864592,0.0001812,53.2175,220.0108,61.3884,298.729,0.00021551,3.146e-05,0.0,0 STARLINK-3916,1 52492U 22049AT  23084.11368942  .00003146  00000-0  21551-3 0  9991,2 52492  53.2175 220.0108 0001812  61.3884 298.7290 15.08864592 49426,6917.805,95.436,540.924,538.417,0.0
52492.0,STARLINK-3916,PAYLOAD,2023-03-25 12:16:03,15.08814468,0.0001825,53.218,218.2269,95.9674,264.1526,-0.00074495,-0.00012116,0.0,0 STARLINK-3916,1 52492U 22049AT  23084.51115017 -.00012116  00000-0 -74495-3 0  9992,2 52492  53.2180 218.2269 0001825  95.9674 264.1526 15.08814468 49485,6917.958,95.439,541.086,538.561,0.0
52492.0,STARLINK-3916,PAYLOAD,2023-03-25 15:26:49,15.08818828,0.000159,53.2173,217.6311,82.3155,277.8018,-0.00059754,-9.78e-05,0.0,0 STARLINK-3916,1 52492U 22049AT  23084.64362998 -.00009780  00000-0 -59754-3 0  9992,2 52492  53.2173 217.6311 0001590  82.3155 277.8018 15.08818828 49347,6917.945,95.439,540.91,538.71,0.0
52492.0,STARLINK-3916,PAYLOAD,2023-03-26 15:17:38,15.08822572,0.0001698,53.2178,213.1713,88.2437,271.8749,0.00036279,5.488e-05,0.0,0 STARLINK-3916,1 52492U 22049AT  23085.63724926  .00005488  00000-0  36279-3 0  9991,2 52492  53.2178 213.1713 0001698  88.2437 271.8749 15.08822572 49656,6917.934,95.439,540.973,538.624,0.0
52492.0,STARLINK-3916,PAYLOAD,2023-03-27 13:33:02,15.08859497,0.000179,53.2179,209.0075,91.4093,268.7105,0.001012,0.00015863,0.0,0 STARLINK-3916,1 52492U 22049AT  23086.56460872  .00015863  00000-0  10120-2 0  9995,2 52492  53.2179 209.0075 0001790  91.4093 268.7105 15.08859497 49791,6917.821,95.436,540.924,538.448,0.0
52492.0,STARLINK-3916,PAYLOAD,2023-03-27 15:08:25,15.08866195,0.00018,53.2176,208.71,90.7083,269.4115,0.0011354,0.00017841,0.0,0 STARLINK-3916,1 52492U 22049AT  23086.63084708  .00017841  00000-0  11354-2 0  9991,2 52492  53.2176 208.7100 0001800  90.7083 269.4115 15.08866195 49642,6917.8,95.436,540.911,538.42,0.0
52492.0,STARLINK-3916,PAYLOAD,2023-03-28 07:02:16,15.08863393,0.0001864,53.218,205.7402,106.1061,254.0136,0.00051685,7.952e-05,0.0,0 STARLINK-3916,1 52492U 22049AT  23087.29324102  .00007952  00000-0  51685-3 0  9993,2 52492  53.2180 205.7402 0001864 106.1061 254.0136 15.08863393 49906,6917.809,95.436,540.963,538.384,0.0
52492.0,STARLINK-3916,PAYLOAD,2023-03-28 13:23:48,15.08859719,0.000171,53.2172,204.5468,100.6067,259.5118,0.00055149,8.505e-05,0.0,0 STARLINK-3916,1 52492U 22049AT  23087.55820050  .00008505  00000-0  55149-3 0  9999,2 52492  53.2172 204.5468 0001710 100.6067 259.5118 15.08859719 49784,6917.82,95.436,540.868,538.502,0.0
52492.0,STARLINK-3916,PAYLOAD,2023-03-28 14:59:11,15.08864207,0.0001694,53.2172,204.2495,100.3633,259.755,0.00077221,0.00012031,0.0,0 STARLINK-3916,1 52492U 22049AT  23087.62443931  .00012031  00000-0  77221-3 0  9990,2 52492  53.2172 204.2495 0001694 100.3633 259.7550 15.08864207 49799,6917.806,95.436,540.843,538.5,0.0
52492.0,STARLINK-3916,PAYLOAD,2023-03-29 00:31:30,15.08854708,0.0001591,53.2168,202.4653,100.5572,259.5599,0.0012389,0.00019492,0.0,0 STARLINK-3916,1 52492U 22049AT  23088.02188054  .00019492  00000-0  12389-2 0  9998,2 52492  53.2168 202.4653 0001591 100.5572 259.5599 15.08854708 50013,6917.835,95.437,540.801,538.6,0.0
52492.0,STARLINK-3916,PAYLOAD,2023-03-29 13:14:35,15.08850529,0.0001591,53.2161,200.0863,103.2613,256.8556,0.0016046,0.00025349,0.0,0 STARLINK-3916,1 52492U 22049AT  23088.55180100  .00025349  00000-0  16046-2 0  9992,2 52492  53.2161 200.0863 0001591 103.2613 256.8556 15.08850529 50097,6917.848,95.437,540.814,538.613,0.0
52492.0,STARLINK-3916,PAYLOAD,2023-03-29 19:36:07,15.08873747,0.0001497,53.2154,198.8959,98.8844,261.2317,0.0023873,0.00037946,0.0,0 STARLINK-3916,1 52492U 22049AT  23088.81675631  .00037946  00000-0  23873-2 0  9991,2 52492  53.2154 198.8959 0001497  98.8844 261.2317 15.08873747 49976,6917.777,95.435,540.678,538.607,0.0
52492.0,STARLINK-3916,PAYLOAD,2023-03-30 11:29:59,15.08843978,0.000104,53.2159,195.9235,93.2247,266.8864,0.0016966,0.00026819,0.0,0 STARLINK-3916,1 52492U 22049AT  23089.47916348  .00026819  00000-0  16966-2 0  9999,2 52492  53.2159 195.9235 0001040  93.2247 266.8864 15.08843978 50238,6917.868,95.437,540.453,539.014,0.0
52492.0,STARLINK-3916,PAYLOAD,2023-03-30 19:26:55,15.08861595,0.0001373,53.2154,194.4336,66.4628,293.6508,0.0018397,0.0002913,0.0,0 STARLINK-3916,1 52492U 22049AT  23089.81036328  .00029130  00000-0  18397-2 0  9997,2 52492  53.2154 194.4336 0001373  66.4628 293.6508 15.08861595 50129,6917.814,95.436,540.629,538.73,0.0
52492.0,STARLINK-3916,PAYLOAD,2023-03-31 06:34:37,15.08823239,4.84e-05,53.2172,192.3516,120.0384,240.0656,0.0018472,0.00029219,0.0,0 STARLINK-3916,1 52492U 22049AT  23090.27404763  .00029219  00000-0  18472-2 0  9993,2 52492  53.2172 192.3516 0000484 120.0384 240.0656 15.08823239 50352,6917.932,95.439,540.131,539.462,0.0
52492.0,STARLINK-3916,PAYLOAD,2023-03-31 16:06:55,15.08883278,0.0001231,53.2148,190.5694,65.6757,294.4364,0.0033355,0.00053261,0.0,0 STARLINK-3916,1 52492U 22049AT  23090.67148120  .00053261  00000-0  33355-2 0  9990,2 52492  53.2148 190.5694 0001231  65.6757 294.4364 15.08883278 50416,6917.748,95.435,540.465,538.762,0.0
52492.0,STARLINK-3916,PAYLOAD,2023-04-01 06:25:24,15.08828165,0.0001097,53.2164,187.8955,69.948,290.163,-0.00025675,-4.37e-05,0.0,0 STARLINK-3916,1 52492U 22049AT  23091.26764635 -.00004370  00000-0 -25675-3 0  9997,2 52492  53.2164 187.8955 0001097  69.9480 290.1630 15.08828165 50506,6917.917,95.438,540.54,539.023,0.0
52492.0,STARLINK-3916,PAYLOAD,2023-04-01 12:46:57,15.08834397,0.0001235,53.216,186.7033,93.6382,266.4752,0.0014745,0.00023253,0.0,0 STARLINK-3916,1 52492U 22049AT  23091.53261017  .00023253  00000-0  14745-2 0  9997,2 52492  53.2160 186.7033 0001235  93.6382 266.4752 15.08834397 50387,6917.898,95.438,540.617,538.908,0.0
52492.0,STARLINK-3916,PAYLOAD,2023-04-01 15:57:43,15.08840346,0.0001222,53.216,186.1092,87.354,272.7592,0.0022897,0.00036341,0.0,0 STARLINK-3916,1 52492U 22049AT  23091.66509188  .00036341  00000-0  22897-2 0  9994,2 52492  53.2160 186.1092 0001222  87.3540 272.7592 15.08840346 50561,6917.879,95.438,540.59,538.899,0.0
